start=new Date('2021-11-05T00:00:00.000Z').valueOf();
sats=[{"PERIAPSIS":"546.230","SITE":"AFETR","RCS_SIZE":"LARGE","ELEMENT_SET_NO":"999","MEAN_MOTION_DDOT":"0.0000000000000","OBJECT_NAME":"STARLINK-1243","TLE_LINE2":"2 45234  53.0531 326.9876 0001391  67.3147 292.7989 15.06406750 95745","SEMIMAJOR_AXIS":"6925.328","EPOCH":"2021-11-04T13:40:22.049760","ARG_OF_PERICENTER":"67.3147","APOAPSIS":"548.156","LAUNCH_DATE":"2020-02-17","MEAN_MOTION":"15.06406750","MEAN_MOTION_DOT":"0.00004646","NORAD_CAT_ID":"45234","MEAN_ANOMALY":"292.7989","COUNTRY_CODE":"US","PERIOD":"95.592","INCLINATION":"53.0531","TLE_LINE1":"1 45234U 20012BJ  21308.56969965  .00004646  00000-0  33054-3 0  9990","EPHEMERIS_TYPE":"0","REV_AT_EPOCH":"9574","CENTER_NAME":"EARTH","CLASSIFICATION_TYPE":"U","BSTAR":"0.00033054000000","RA_OF_ASC_NODE":"326.9876","TIME_SYSTEM":"UTC","REF_FRAME":"TEME","OBJECT_ID":"2020-012BJ","ECCENTRICITY":"0.00013910","DECAY_DATE":null,"MEAN_ELEMENT_THEORY":"SGP4","FILE":"3202404","OBJECT_TYPE":"PAYLOAD","GP_ID":"188953158"},{"FILE":"3201522","GP_ID":"188912992","OBJECT_TYPE":"PAYLOAD","DECAY_DATE":null,"MEAN_ELEMENT_THEORY":"SGP4","ECCENTRICITY":"0.00011090","OBJECT_ID":"2020-012BK","RA_OF_ASC_NODE":"327.3597","BSTAR":"0.00020878000000","CLASSIFICATION_TYPE":"U","TIME_SYSTEM":"UTC","REF_FRAME":"TEME","TLE_LINE1":"1 45235U 20012BK  21308.48860421  .00002830  00000-0  20878-3 0  9992","REV_AT_EPOCH":"9485","CENTER_NAME":"EARTH","EPHEMERIS_TYPE":"0","PERIOD":"95.592","INCLINATION":"53.0563","MEAN_ANOMALY":"282.2283","NORAD_CAT_ID":"45235","MEAN_MOTION_DOT":"0.00002830","COUNTRY_CODE":"US","APOAPSIS":"547.969","MEAN_MOTION":"15.06404058","LAUNCH_DATE":"2020-02-17","SITE":"AFETR","PERIAPSIS":"546.433","ARG_OF_PERICENTER":"77.8830","EPOCH":"2021-11-04T11:43:35.403744","TLE_LINE2":"2 45235  53.0563 327.3597 0001109  77.8830 282.2283 15.06404058 94859","SEMIMAJOR_AXIS":"6925.336","MEAN_MOTION_DDOT":"0.0000000000000","OBJECT_NAME":"STARLINK-1246","ELEMENT_SET_NO":"999","RCS_SIZE":"LARGE"},{"INCLINATION":"53.0542","PERIOD":"95.592","COUNTRY_CODE":"US","MEAN_ANOMALY":"286.3540","NORAD_CAT_ID":"45236","MEAN_MOTION_DOT":"0.00000608","MEAN_MOTION":"15.06404801","LAUNCH_DATE":"2020-02-17","APOAPSIS":"548.287","ARG_OF_PERICENTER":"73.7622","EPOCH":"2021-11-04T16:03:40.318560","SEMIMAJOR_AXIS":"6925.334","TLE_LINE2":"2 45236  53.0542 286.5457 0001571  73.7622 286.3540 15.06404801 96348","ELEMENT_SET_NO":"999","MEAN_MOTION_DDOT":"0.0000000000000","OBJECT_NAME":"STARLINK-1247","RCS_SIZE":"LARGE","SITE":"AFETR","PERIAPSIS":"546.111","GP_ID":"188951664","OBJECT_TYPE":"PAYLOAD","FILE":"3202404","DECAY_DATE":null,"MEAN_ELEMENT_THEORY":"SGP4","ECCENTRICITY":"0.00015710","OBJECT_ID":"2020-012BL","TIME_SYSTEM":"UTC","REF_FRAME":"TEME","RA_OF_ASC_NODE":"286.5457","BSTAR":"0.00005967800000","CLASSIFICATION_TYPE":"U","CENTER_NAME":"EARTH","REV_AT_EPOCH":"9634","EPHEMERIS_TYPE":"0","TLE_LINE1":"1 45236U 20012BL  21308.66921665  .00000608  00000-0  59678-4 0  9993"},{"OBJECT_ID":"2020-012BM","ECCENTRICITY":"0.00015410","DECAY_DATE":null,"MEAN_ELEMENT_THEORY":"SGP4","OBJECT_TYPE":"PAYLOAD","GP_ID":"188951914","FILE":"3202404","EPHEMERIS_TYPE":"0","REV_AT_EPOCH":"9639","CENTER_NAME":"EARTH","TLE_LINE1":"1 45237U 20012BM  21308.95674107  .00003260  00000-0  23773-3 0  9995","REF_FRAME":"TEME","TIME_SYSTEM":"UTC","CLASSIFICATION_TYPE":"U","BSTAR":"0.00023773000000","RA_OF_ASC_NODE":"285.2606","COUNTRY_CODE":"US","MEAN_MOTION_DOT":"0.00003260","NORAD_CAT_ID":"45237","MEAN_ANOMALY":"285.6003","INCLINATION":"53.0551","PERIOD":"95.593","RCS_SIZE":"LARGE","ELEMENT_SET_NO":"999","MEAN_MOTION_DDOT":"0.0000000000000","OBJECT_NAME":"STARLINK-1270","TLE_LINE2":"2 45237  53.0551 285.2606 0001541  74.5156 285.6003 15.06389749 96393","SEMIMAJOR_AXIS":"6925.380","ARG_OF_PERICENTER":"74.5156","EPOCH":"2021-11-04T22:57:42.428448","PERIAPSIS":"546.178","SITE":"AFETR","LAUNCH_DATE":"2020-02-17","MEAN_MOTION":"15.06389749","APOAPSIS":"548.312"},{"REF_FRAME":"TEME","TIME_SYSTEM":"UTC","BSTAR":"0.00026355000000","RA_OF_ASC_NODE":"56.0313","CLASSIFICATION_TYPE":"U","REV_AT_EPOCH":"9110","CENTER_NAME":"EARTH","EPHEMERIS_TYPE":"0","TLE_LINE1":"1 45360U 20019A   21308.78256293  .00003647  00000-0  26355-3 0  9990","OBJECT_TYPE":"PAYLOAD","GP_ID":"188951678","FILE":"3202404","ECCENTRICITY":"0.00011730","DECAY_DATE":null,"MEAN_ELEMENT_THEORY":"SGP4","OBJECT_ID":"2020-019A","MEAN_MOTION":"15.06406144","LAUNCH_DATE":"2020-03-18","APOAPSIS":"548.007","SEMIMAJOR_AXIS":"6925.330","TLE_LINE2":"2 45360  53.0547  56.0313 0001173  88.7386 271.3738 15.06406144 91107","ARG_OF_PERICENTER":"88.7386","EPOCH":"2021-11-04T18:46:53.437152","RCS_SIZE":"LARGE","MEAN_MOTION_DDOT":"0.0000000000000","OBJECT_NAME":"STARLINK-1279","ELEMENT_SET_NO":"999","PERIAPSIS":"546.382","SITE":"AFETR","INCLINATION":"53.0547","PERIOD":"95.592","COUNTRY_CODE":"US","NORAD_CAT_ID":"45360","MEAN_ANOMALY":"271.3738","MEAN_MOTION_DOT":"0.00003647"},{"TLE_LINE1":"1 45361U 20019B   21308.63788515  .00004358  00000-0  31108-3 0  9994","CENTER_NAME":"EARTH","REV_AT_EPOCH":"9095","EPHEMERIS_TYPE":"0","BSTAR":"0.00031108000000","RA_OF_ASC_NODE":"66.6813","CLASSIFICATION_TYPE":"U","REF_FRAME":"TEME","TIME_SYSTEM":"UTC","ECCENTRICITY":"0.00012100","DECAY_DATE":null,"MEAN_ELEMENT_THEORY":"SGP4","OBJECT_ID":"2020-019B","FILE":"3202404","OBJECT_TYPE":"PAYLOAD","GP_ID":"188951928","PERIAPSIS":"546.312","SITE":"AFETR","TLE_LINE2":"2 45361  53.0553  66.6813 0001210  86.6340 273.4787 15.06420704 90953","SEMIMAJOR_AXIS":"6925.285","EPOCH":"2021-11-04T15:18:33.276960","ARG_OF_PERICENTER":"86.6340","RCS_SIZE":"LARGE","OBJECT_NAME":"STARLINK-1301","MEAN_MOTION_DDOT":"0.0000000000000","ELEMENT_SET_NO":"999","APOAPSIS":"547.988","MEAN_MOTION":"15.06420704","LAUNCH_DATE":"2020-03-18","NORAD_CAT_ID":"45361","MEAN_ANOMALY":"273.4787","MEAN_MOTION_DOT":"0.00004358","COUNTRY_CODE":"US","PERIOD":"95.591","INCLINATION":"53.0553"},{"OBJECT_TYPE":"PAYLOAD","GP_ID":"188952679","FILE":"3202404","ECCENTRICITY":"0.00014430","DECAY_DATE":null,"MEAN_ELEMENT_THEORY":"SGP4","OBJECT_ID":"2020-019C","REF_FRAME":"TEME","TIME_SYSTEM":"UTC","BSTAR":"0.00038340000000","RA_OF_ASC_NODE":"86.4735","CLASSIFICATION_TYPE":"U","REV_AT_EPOCH":"9067","CENTER_NAME":"EARTH","EPHEMERIS_TYPE":"0","TLE_LINE1":"1 45362U 20019C   21308.68397108  .00005436  00000-0  38340-3 0  9997","INCLINATION":"53.0533","PERIOD":"95.591","COUNTRY_CODE":"US","NORAD_CAT_ID":"45362","MEAN_ANOMALY":"273.8237","MEAN_MOTION_DOT":"0.00005436","MEAN_MOTION":"15.06413394","LAUNCH_DATE":"2020-03-18","APOAPSIS":"548.172","TLE_LINE2":"2 45362  53.0533  86.4735 0001443  86.2917 273.8237 15.06413394 90679","SEMIMAJOR_AXIS":"6925.308","EPOCH":"2021-11-04T16:24:55.101312","ARG_OF_PERICENTER":"86.2917","RCS_SIZE":"LARGE","MEAN_MOTION_DDOT":"0.0000000000000","ELEMENT_SET_NO":"999","OBJECT_NAME":"STARLINK-1306","PERIAPSIS":"546.173","SITE":"AFETR"},{"INCLINATION":"53.0550","PERIOD":"95.591","COUNTRY_CODE":"US","MEAN_MOTION_DOT":"0.00003809","NORAD_CAT_ID":"45364","MEAN_ANOMALY":"270.9262","LAUNCH_DATE":"2020-03-18","MEAN_MOTION":"15.06415541","APOAPSIS":"548.047","RCS_SIZE":"LARGE","MEAN_MOTION_DDOT":"0.0000000000000","ELEMENT_SET_NO":"999","OBJECT_NAME":"STARLINK-1313","TLE_LINE2":"2 45364  53.0550  56.0521 0001272  89.1872 270.9262 15.06415541 91109","SEMIMAJOR_AXIS":"6925.301","ARG_OF_PERICENTER":"89.1872","EPOCH":"2021-11-04T18:41:34.577952","PERIAPSIS":"546.285","SITE":"AFETR","OBJECT_TYPE":"PAYLOAD","GP_ID":"188953424","FILE":"3202404","OBJECT_ID":"2020-019E","ECCENTRICITY":"0.00012720","MEAN_ELEMENT_THEORY":"SGP4","DECAY_DATE":null,"TIME_SYSTEM":"UTC","REF_FRAME":"TEME","CLASSIFICATION_TYPE":"U","BSTAR":"0.00027436000000","RA_OF_ASC_NODE":"56.0521","EPHEMERIS_TYPE":"0","REV_AT_EPOCH":"9110","CENTER_NAME":"EARTH","TLE_LINE1":"1 45364U 20019E   21308.77887243  .00003809  00000-0  27436-3 0  9999"},{"DECAY_DATE":null,"MEAN_ELEMENT_THEORY":"SGP4","ECCENTRICITY":"0.00013210","OBJECT_ID":"2020-019F","GP_ID":"188919164","OBJECT_TYPE":"PAYLOAD","FILE":"3201778","REV_AT_EPOCH":"9091","CENTER_NAME":"EARTH","EPHEMERIS_TYPE":"0","TLE_LINE1":"1 45365U 20019F   21308.59919205  .00005731  00000-0  41195-3 0  9998","TIME_SYSTEM":"UTC","REF_FRAME":"TEME","RA_OF_ASC_NODE":"66.8552","BSTAR":"0.00041195000000","CLASSIFICATION_TYPE":"U","COUNTRY_CODE":"US","MEAN_ANOMALY":"260.5098","NORAD_CAT_ID":"45365","MEAN_MOTION_DOT":"0.00005731","INCLINATION":"53.0019","PERIOD":"95.643","ARG_OF_PERICENTER":"99.6039","EPOCH":"2021-11-04T14:22:50.193120","TLE_LINE2":"2 45365  53.0019  66.8552 0001321  99.6039 260.5098 15.05600098 90911","SEMIMAJOR_AXIS":"6927.801","OBJECT_NAME":"STARLINK-1317","MEAN_MOTION_DDOT":"0.0000000000000","ELEMENT_SET_NO":"999","RCS_SIZE":"LARGE","SITE":"AFETR","PERIAPSIS":"548.751","MEAN_MOTION":"15.05600098","LAUNCH_DATE":"2020-03-18","APOAPSIS":"550.581"},{"APOAPSIS":"548.167","MEAN_MOTION":"15.06403653","LAUNCH_DATE":"2020-03-18","PERIAPSIS":"546.238","SITE":"AFETR","TLE_LINE2":"2 45366  53.0535  86.2382 0001393  83.6494 276.4654 15.06403653 90697","SEMIMAJOR_AXIS":"6925.337","ARG_OF_PERICENTER":"83.6494","EPOCH":"2021-11-04T17:39:12.732192","RCS_SIZE":"LARGE","MEAN_MOTION_DDOT":"0.0000000000000","OBJECT_NAME":"STARLINK-1262","ELEMENT_SET_NO":"999","PERIOD":"95.592","INCLINATION":"53.0535","NORAD_CAT_ID":"45366","MEAN_ANOMALY":"276.4654","MEAN_MOTION_DOT":"0.00003198","COUNTRY_CODE":"US","BSTAR":"0.00023349000000","RA_OF_ASC_NODE":"86.2382","CLASSIFICATION_TYPE":"U","REF_FRAME":"TEME","TIME_SYSTEM":"UTC","TLE_LINE1":"1 45366U 20019G   21308.73556403  .00003198  00000-0  23349-3 0  9998","CENTER_NAME":"EARTH","REV_AT_EPOCH":"9069","EPHEMERIS_TYPE":"0","FILE":"3202404","OBJECT_TYPE":"PAYLOAD","GP_ID":"188952422","ECCENTRICITY":"0.00013930","MEAN_ELEMENT_THEORY":"SGP4","DECAY_DATE":null,"OBJECT_ID":"2020-019G"}];
